[{"OBJECT_NAME":"STARLINK-31442","OBJECT_ID":"2024-098B","EPOCH":"2026-03-08T23:43:37.288128","MEAN_MOTION":15.27569616,"ECCENTRICITY":0.00012729,"INCLINATION":43.004,"RA_OF_ASC_NODE":285.8538,"ARG_OF_PERICENTER":275.8834,"MEAN_ANOMALY":84.1873,"EPHEMERIS_TYPE":0,"CLASSIFICATION_TYPE":"U","NORAD_CAT_ID":59859,"ELEMENT_SET_NO":999,"REV_AT_EPOCH":10169,"BSTAR":-1.6929042e-5,"MEAN_MOTION_DOT":-7.28e-6,"MEAN_MOTION_DDOT":0},{"OBJECT_NAME":"OBJECT A","OBJECT_ID":"2025-234A","EPOCH":"2026-03-09T23:03:34.210368","MEAN_MOTION":15.32505956,"ECCENTRICITY":0.00130678,"INCLINATION":97.4388,"RA_OF_ASC_NODE":139.352,"ARG_OF_PERICENTER":148.634,"MEAN_ANOMALY":211.5684,"EPHEMERIS_TYPE":0,"CLASSIFICATION_TYPE":"U","NORAD_CAT_ID":66053,"ELEMENT_SET_NO":999,"REV_AT_EPOCH":2164,"BSTAR":0.0014840662,"MEAN_MOTION_DOT":0.00046856,"MEAN_MOTION_DDOT":0}]
